GSAT0101 (GALILEO-PFM)  
1 37846U 11060A   25365.08501047 -.00000075  00000+0  00000+0 0  9993
2 37846  57.0484 346.3225 0003399 324.8931  35.0863  1.70475470 88250
GSAT0102 (GALILEO-FM2)  
1 37847U 11060B   25365.23719016 -.00000076  00000+0  00000+0 0  9999
2 37847  57.0491 346.3187 0005300 316.2700 182.5857  1.70475678 88261
GSAT0103 (GALILEO-FM3)  
1 38857U 12055A   25362.19229569  .00000010  00000+0  00000+0 0  9994
2 38857  55.7006 106.2421 0003031 270.7787  89.1771  1.70473262 82091
GSAT0201 (GALILEO 5)    
1 40128U 14050A   25361.48043923 -.00000047  00000+0  00000+0 0  9995
2 40128  49.0597 280.4625 1649355 172.8288 189.9095  1.85519538 75139
GSAT0202 (GALILEO 6)    
1 40129U 14050B   25364.97054554 -.00000042  00000+0  00000+0 0  9990
2 40129  49.0716 279.4036 1650322 173.6988 188.7200  1.85520277 77363
GSAT0203 (GALILEO 7)    
1 40544U 15017A   25364.27649008 -.00000072  00000+0  00000+0 0  9995
2 40544  56.8420 346.2020 0006447 276.7504  83.1807  1.70475741 66323
GSAT0204 (GALILEO 8)    
1 40545U 15017B   25365.11858706 -.00000076  00000+0  00000+0 0  9991
2 40545  56.8482 346.1968 0006036 269.4263  90.5059  1.70475230 29386
GSAT0205 (GALILEO 9)    
1 40889U 15045A   25361.95422436  .00000072  00000+0  00000+0 0  9993
2 40889  54.9988 226.3374 0006275  43.5627 316.5725  1.70473029 64099
GSAT0206 (GALILEO 10)   
1 40890U 15045B   25363.93462572  .00000080  00000+0  00000+0 0  9999
2 40890  54.9972 226.2776 0004198  43.0053 317.1185  1.70473123 64158
GSAT0209 (GALILEO 12)   
1 41174U 15079A   25361.16975374  .00000015  00000+0  00000+0 0  9992
2 41174  55.7206 105.9849 0002673 340.8041  19.1801  1.70474435 61842
GSAT0208 (GALILEO 11)   
1 41175U 15079B   25363.73623933 -.00000004  00000+0  00000+0 0  9998
2 41175  55.7206 105.9114 0002304 336.0843  23.8889  1.70474094 62307
GSAT0211 (GALILEO 14)   
1 41549U 16030A   25363.86038107  .00000080  00000+0  00000+0 0  9991
2 41549  55.1469 226.3518 0004035  18.0988 342.0065  1.70473164 59780
GSAT0210 (GALILEO 13)   
1 41550U 16030B   25363.53117979  .00000079  00000+0  00000+0 0  9990
2 41550  55.1465 226.3589 0000580 179.1921 180.8976  1.70473477 59778
GSAT0207 (GALILEO 15)   
1 41859U 16069A   25364.98252734 -.00000015  00000+0  00000+0 0  9994
2 41859  55.3922 105.7449 0002920 312.4108  47.5439  1.70474331 56538
GSAT0212 (GALILEO 16)   
1 41860U 16069B   25364.83616606 -.00000014  00000+0  00000+0 0  9991
2 41860  55.3898 105.7443 0002078  14.8770 345.1088  1.70474621 56784
GSAT0213 (GALILEO 17)   
1 41861U 16069C   25365.20369764 -.00000017  00000+0  00000+0 0  9997
2 41861  55.3927 105.7417 0002859 283.4707  76.4763  1.70474870 56656
GSAT0214 (GALILEO 18)   
1 41862U 16069D   25365.34971086 -.00000018  00000+0  00000+0 0  9990
2 41862  55.3910 105.7306 0002060 286.4215  73.5345  1.70474778 56782
GSAT0215 (GALILEO 19)   
1 43055U 17079A   25364.66679520  .00000082  00000+0  00000+0 0  9990
2 43055  55.1244 226.1436 0001156 352.9815   7.1104  1.70473940 50115
GSAT0216 (GALILEO 20)   
1 43056U 17079B   25359.09223846  .00000070  00000+0  00000+0 0  9995
2 43056  55.1265 226.2974 0002272 325.9162  34.1608  1.70474070 50037
GSAT0217 (GALILEO 21)   
1 43057U 17079C   25364.00569035  .00000080  00000+0  00000+0 0  9997
2 43057  55.1229 226.1601 0003088  30.6866 329.4227  1.70473409 50101
GSAT0218 (GALILEO 22)   
1 43058U 17079D   25362.46595147  .00000075  00000+0  00000+0 0  9993
2 43058  55.1236 226.1999 0001818 337.1235  22.9549  1.70473740 50104
GSAT0221 (GALILEO 25)   
1 43564U 18060A   25362.95513955 -.00000065  00000+0  00000+0 0  9997
2 43564  57.2239 346.3798 0006731 287.8223  72.1123  1.70475537 46264
GSAT0222 (GALILEO 26)   
1 43565U 18060B   25364.34767166 -.00000071  00000+0  00000+0 0  9995
2 43565  57.2271 346.3452 0005989 269.0932  90.8426  1.70475244 46337
GSAT0219 (GALILEO 23)   
1 43566U 18060C   25365.15537660 -.00000075  00000+0  00000+0 0  9994
2 43566  57.2261 346.3249 0005911 292.7910  67.1478  1.70475422 46326
GSAT0220 (GALILEO 24)   
1 43567U 18060D   25364.20313701 -.00000070  00000+0  00000+0 0  9993
2 43567  57.2260 346.3513 0006229 289.1848  70.7526  1.70475238 46298
GSAT0223 (GALILEO 27)   
1 49809U 21116A   25365.52311859 -.00000077  00000+0  00000+0 0  9999
2 49809  57.2149 346.2058 0004383 259.9922 280.8034  1.70475274 25328
GSAT0224 (GALILEO 28)   
1 49810U 21116B   25365.27336564 -.00000076  00000+0  00000+0 0  9992
2 49810  57.2160 346.2111 0003826 262.8267 237.2880  1.70475398 25343
GSAT0225 (GALILEO 29)   
1 59598U 24079A   25362.72687251  .00000004  00000+0  00000+0 0  9996
2 59598  55.0102 105.8485 0002118 209.0629 160.7639  1.70474490 10416
GSAT0227 (GALILEO 30)   
1 59600U 24079C   25364.65398144 -.00000013  00000+0  00000+0 0  9995
2 59600  55.0068 105.7930 0002078 121.1900 238.8104  1.70474651 10497
GSAT0232 (GALILEO 32)   
1 61182U 24167A   25363.31340485  .00000079  00000+0  00000+0 0  9999
2 61182  55.2360 225.9758 0001878 195.6650 256.0538  1.70473329  7984
GSAT0226 (GALILEO 31)   
1 61183U 24167B   25365.62455137  .00000083  00000+0  00000+0 0  9992
2 61183  55.2341 225.9175 0001413 110.6656  72.1173  1.70473374  7998
GALILEO A               
1 67160U 25302A   25352.14605887 -.00000007  00000+0  00000+0 0  9994
2 67160  54.2406 107.2544 0008423 237.6458 122.2317  1.72906186    28
GALILEO B               
1 67161U 25302B   25365.44232658 -.00000018  00000+0  00000+0 0  9996
2 67161  54.2329 106.8331 0006490 266.0500  93.8527  1.72971438   262
